CCSDS_OEM_VERS = 2.0  
CREATION_DATE  = 2026-05-08T16:27:25
ORIGINATOR     = ESOC/OPS-GFA                            
 
 



META_START
OBJECT_NAME          = LISA                                    
OBJECT_ID            = -1000                                   
CENTER_NAME          = SUN                     
REF_FRAME            = EME2000 
TIME_SYSTEM          = TCB
START_TIME           = 2036-12-23T00:00:30.346418            
STOP_TIME            = 2047-09-08T04:12:36.707336            
INTERPOLATION        = HERMITE                                 
INTERPOLATION_DEGREE = 7                                       
META_STOP

2041-01-14T22:59:51.327087    -1.04641363566754572e+07    1.36844204710542262e+08    5.81386560993376002e+07   -2.98235794314720550e+01   -1.93876955491951231e+00   -9.71461904218060335e-01    4.19342706741859001e-07   -5.48472365204810556e-06   -2.33019656047348883e-06
2041-01-15T19:10:28.012156    -1.26292396546755917e+07    1.36688914707445800e+08    5.80619475553753823e+07   -2.97899659067480052e+01   -2.33696162602649204e+00   -1.14061902042886865e+00    5.06168272292784896e-07   -5.47901911539080360e-06   -2.32734244485239716e-06
2041-01-16T15:21:04.697226    -1.47916724332025200e+07    1.36504717489999741e+08    5.79729599910411686e+07   -2.97500488947937924e+01   -2.73469667758199675e+00   -1.30955069774042787e+00    5.92901613866147513e-07   -5.47214010128427715e-06   -2.32398934296173242e-06
2041-01-17T11:31:41.382295    -1.69509770863298178e+07    1.36291649352953583e+08    5.78717110977613702e+07   -2.97038357872753522e+01   -3.13188943789250551e+00   -1.47822071116956000e+00    6.79523656743126423e-07   -5.46408771427525609e-06   -2.32013781732078100e-06
2041-01-18T07:42:18.067364    -1.91066965799031109e+07    1.36049752751104236e+08    5.77582211836846843e+07   -2.96513353609882522e+01   -3.52845472534314020e+00   -1.64659288077059385e+00    7.66015337538917724e-07   -5.45486332824863130e-06   -2.31578854470706782e-06
2041-01-19T03:52:54.752433    -2.12583745555150695e+07    1.35779076297805637e+08    5.76325131725421771e+07   -2.95925577769410353e+01   -3.92430746750777359e+00   -1.81463107974076765e+00    8.52357606659072672e-07   -5.44446857316625262e-06   -2.31094231049134998e-06
2041-01-20T00:03:31.437502    -2.34055554435325861e+07    1.35479674779616535e+08    5.74946126093246862e+07   -2.95275145792853060e+01   -4.31936271913428449e+00   -1.98229924204577967e+00    9.38531430064039899e-07   -5.43290531737671771e-06   -2.30560000109891259e-06
2041-01-20T20:14:08.122572    -2.55477845877920352e+07    1.35151609192191660e+08    5.73445476749347225e+07   -2.94562186941425423e+01   -4.71353567867747536e+00   -2.14956136942689247e+00    1.02451779034648735e-06   -5.42017564534172767e-06   -2.29976259453061832e-06
2041-01-21T16:24:44.807641    -2.76846083845791519e+07    1.34794946802520484e+08    5.71823492119703442e+07   -2.93786844283777242e+01   -5.10674170305201969e+00   -2.31638153765094446e+00    1.11029768712143081e-06   -5.40628183082252973e-06   -2.29343114896316100e-06
2041-01-22T12:29:47.614496    -2.98057932715052664e+07    1.34411596630625457e+08    5.70088794484057724e+07   -2.92953266689159477e+01   -5.49709631559479650e+00   -2.48196045687312150e+00    1.19545950753242458e-06   -5.39129880400046402e-06   -2.28663955598859870e-06
2041-01-23T08:34:50.421351    -3.19207287714974023e+07    1.34000062903055817e+08    5.68234560470646024e+07   -2.92058201080462929e+01   -5.88632610088419117e+00   -2.64703071395419354e+00    1.28037931498817636e-06   -5.37516801329903706e-06   -2.27936105925111184e-06
2041-01-24T04:39:53.228207    -3.40289709820993990e+07    1.33560429967430502e+08    5.66261170664063171e+07   -2.91101829156203031e+01   -6.27434818934276439e+00   -2.81155715734978973e+00    1.36503853328277493e-06   -5.35789272798629402e-06   -2.27159713815218046e-06
2041-01-25T00:44:56.035062    -3.61300773205486983e+07    1.33092788106987849e+08    5.64169030825255886e+07   -2.90084346039106009e+01   -6.66107995537686381e+00   -2.97550474572294377e+00    1.44941860815146241e-06   -5.33947643162649355e-06   -2.26334936346570975e-06
2041-01-25T20:49:58.841918    -3.82236066568011492e+07    1.32597233563895032e+08    5.61958571984605491e+07   -2.89005960254362968e+01   -7.04643903364323876e+00   -3.13883855488430497e+00    1.53350102318711256e-06   -5.31992284261976400e-06   -2.25461940621335772e-06
2041-01-26T16:55:01.648773    -4.03091194292262346e+07    1.32073868541471183e+08    5.59630250445962474e+07   -2.87866893697123807e+01   -7.43034333664035351e+00   -3.30152378530478474e+00    1.61726731369920502e-06   -5.29923593040933091e-06   -2.24540904466739750e-06
2041-01-27T13:00:04.455628    -4.23861777467104569e+07    1.31522801189646170e+08    5.57184547719869018e+07   -2.86667381590713113e+01   -7.81271107331508929e+00   -3.46352577006689533e+00    1.70069907851880061e-06   -5.27741992736308283e-06   -2.23572016948364167e-06
2041-01-28T09:05:07.262485    -4.44543454808862060e+07    1.30944145577977583e+08    5.54621970404208750e+07   -2.85407672437054529e+01   -8.19346076837179993e+00   -3.62480998311947911e+00    1.78377798974623652e-06   -5.25447933631756266e-06   -2.22555478695957950e-06
2041-01-29T05:10:10.069340    -4.65131883522032052e+07    1.30338021660549715e+08    5.51943050030526519e+07   -2.84088027960789091e+01   -8.57251128197064816e+00   -3.78534204770050442e+00    1.86648580044719252e-06   -5.23041893380537746e-06   -2.21491502042658022e-06
2041-01-30T01:15:12.876196    -4.85622740135600939e+07    1.29704555237077132e+08    5.49148342894257978e+07   -2.82708723048573560e+01   -8.94978182950218581e+00   -3.94508774479261604e+00    1.94880435028787790e-06   -5.20524376893191931e-06   -2.20380310976170510e-06
2041-01-30T21:20:15.683051    -5.06011721352130026e+07    1.29043877914536268e+08    5.46238429887112081e+07   -2.81270045685044963e+01   -9.32519200112510660e+00   -4.10401302147612057e+00    2.03071556912310007e-06   -5.17895915794876061e-06   -2.19222140903912869e-06
2041-01-31T17:25:18.489907    -5.26294544946787655e+07    1.28356127073648080e+08    5.43213916349845454e+07   -2.79772296886936687e+01   -9.69866178075415775e+00   -4.26208399904408708e+00    2.11220147852337990e-06   -5.15157067448468164e-06   -2.18017238230483263e-06
2041-02-01T13:30:21.296762    -5.46466950753497481e+07    1.27641445844535008e+08    5.40075431963672340e+07   -2.78215790636832700e+01   -1.00701115641850762e+01   -4.41926698074426305e+00    2.19324419124235002e-06   -5.12308413541582781e-06   -2.16765859746636413e-06
2041-02-02T09:35:24.103618    -5.66524701775377914e+07    1.26899983095875114e+08    5.36823630698548928e+07   -2.76600853818045387e+01   -1.04394621760435964e+01   -4.57552845901245675e+00    2.27382590864651410e-06   -5.09350558248605265e-06   -2.15468271834531467e-06
2041-02-03T05:40:26.910473    -5.86463585456642061e+07    1.26131893441876858e+08    5.33459190836575702e+07   -2.74927826152103094e+01   -1.08066348852453906e+01   -4.73083512206209811e+00    2.35392891607241782e-06   -5.06284125952392958e-06   -2.14124749482656869e-06
2041-02-04T01:45:29.717329    -6.06279415153132975e+07    1.25337337271397412e+08    5.29982815088757128e+07   -2.73197060140333363e+01   -1.11715514186539355e+01   -4.88515385969466642e+00    2.43353557612273715e-06   -5.03109758530071281e-06   -2.12735575112413761e-06
2041-02-04T21:51:47.226906    -6.25988304538907707e+07    1.24515618930860415e+08    5.26391465945346206e+07   -2.71407043896706135e+01   -1.15345073757654628e+01   -5.03860962339646523e+00    2.51271001807533746e-06   -4.99824727114414967e-06   -2.11299557430711654e-06
2041-02-05T17:58:04.736484    -6.45565567936049029e+07    1.23667717731854290e+08    5.22689429472635463e+07   -2.69559914741120998e+01   -1.18950470305102378e+01   -5.19100968123449036e+00    2.59135220149228201e-06   -4.96432937681669381e-06   -2.09818407664893812e-06
2041-02-06T14:04:22.246061    -6.65007086039532349e+07    1.22793811367017522e+08    5.18877481627347022e+07   -2.67656064147576735e+01   -1.22530933807499611e+01   -5.34232148448939537e+00    2.66944490086034539e-06   -4.92935130171056665e-06   -2.08292449765905032e-06
2041-02-07T10:10:39.755639    -6.84308767793785781e+07    1.21894083044783264e+08    5.14956421680511236e+07   -2.65695896025886746e+01   -1.26085699668878384e+01   -5.49251272187104433e+00    2.74697098135350729e-06   -4.89332064188201290e-06   -2.06722016009492926e-06
2041-02-08T06:16:57.265216    -7.03466551746597439e+07    1.20968721483062625e+08    5.10927072183195949e+07   -2.63679826649045346e+01   -1.29614008867875796e+01   -5.64155132582279784e+00    2.82391341764170924e-06   -4.85624520821970327e-06   -2.05107447735690220e-06
2041-02-09T02:23:14.774793    -7.22476407180060297e+07    1.20017920885768667e+08    5.06790278860528916e+07   -2.61608284568056355e+01   -1.33115108118604635e+01   -5.78940547930016169e+00    2.90025530976249565e-06   -4.81813304065286682e-06   -2.03449095924279319e-06
2041-02-09T22:29:32.284372    -7.41334335065986067e+07    1.19041880905664369e+08    5.02546910448564962e+07   -2.59481710516335546e+01   -1.36588250040376771e+01   -5.93604362290667353e+00    2.97597989606123571e-06   -4.77899241840537528e-06   -2.01747321606500299e-06
2041-02-10T18:35:49.793949    -7.60036368893029392e+07    1.18040806597023368e+08    4.98197858488574475e+07   -2.57300557305809150e+01   -1.40032693333415335e+01   -6.08143446226842332e+00    3.05107056319591781e-06   -4.73883186628981023e-06   -2.00002496112746123e-06
2041-02-11T14:42:07.303526    -7.78578575412757099e+07    1.17014908361592188e+08    4.93744037093328238e+07   -2.55065289716832098e+01   -1.43447702957691394e+01   -6.22554697552860326e+00    3.12551085321224513e-06   -4.69766015705039521e-06   -1.98215001156630408e-06
